
STARLINK-5014           
1 53926U 22119AS  25057.41677418 -.00000029  00000+0  16274-4 0  9992
2 53926  53.2158 198.0609 0001268  89.9370 270.1767 15.08832305134673
STARLINK-5008           
1 53927U 22119AT  25057.50245054  .00096397  00000+0  29578-2 0  9991
2 53927  53.1956 180.9810 0005474 248.1950 111.8470 15.32965526134928
STARLINK-5009           
1 53928U 22119AU  25057.09524723  .00002163  00000+0  15395-3 0  9990
2 53928  53.2169 194.6176 0001272  90.1872 269.9266 15.08839685134694
STARLINK-5018           
1 53929U 22119AV  25057.14317660  .00000393  00000+0  42747-4 0  9992
2 53929  53.2161 204.8777 0000938  58.4519 301.6565 15.08843350134556
STARLINK-5010           
1 53930U 22119AW  25057.08052199  .00003740  00000+0  25302-3 0  9996
2 53930  53.2169 194.5269 0001109  77.8130 282.2986 15.08829156134696
STARLINK-5015           
1 53931U 22119AX  25057.33671768  .00001261  00000+0  97331-4 0  9992
2 53931  53.2159 188.3029 0000924 104.5616 255.5478 15.08835876134800
STARLINK-4772           
1 53932U 22119AY  25056.64861084  .00000748  00000+0  65069-4 0  9990
2 53932  53.2204 191.8150 0001743  95.1042 265.0149 15.08838203135128
STARLINK-4782           
1 53933U 22119AZ  25057.09156058  .00000170  00000+0  28788-4 0  9995
2 53933  53.2175 194.5955 0001280  89.5363 270.5776 15.08838701134699
STARLINK-4775           
1 53934U 22119BA  25057.50605326  .00006563  00000+0  43040-3 0  9998
2 53934  53.2196 187.9209 0001661 111.2900 248.8269 15.08810606134828
STARLINK-5000           
1 53935U 22119BB  25057.02486681 -.00000458  00000+0 -10707-4 0  9991
2 53935  53.2173 179.9122 0001346  69.4566 290.6571 15.08845705134897
STARLINK-4791           
1 53936U 22119BC  25056.68168995 -.00000672  00000+0 -24128-4 0  9998
2 53936  53.2169 191.3117 0001225  83.9461 276.1670 15.08848598135136
YAOGAN-36 01A           
1 53943U 22120A   25057.33633158  .00025981  00000+0  10599-2 0  9992
2 53943  34.9951  22.7801 0008152 180.4226 179.6483 15.23484878134877
YAOGAN-36 01C           
1 53947U 22120E   25057.33480692  .00035970  00000+0  14830-2 0  9990
2 53947  34.9945  22.7510 0000032  23.3337 336.7379 15.23100110134872
SHIYAN 16A              
1 53948U 22121A   25057.12847792  .00720151  24255-3  13638-2 0  9996
2 53948  97.3481  98.3693 0002037 219.9667 216.9641 16.00795048135461
SES-20                  
1 53960U 22123A   25057.42475333 -.00000101  00000+0  00000+0 0  9994
2 53960   0.0123 156.2708 0001498 276.3548 133.6731  1.00270875  8762
SES-21                  
1 53961U 22123B   25056.65353209  .00000071  00000+0  00000+0 0  9991
2 53961   0.0255  55.1850 0001032 276.6468 288.1464  1.00269347  2431
STARLINK-4633           
1 53964U 22125A   25057.40440978 -.00000336  00000+0 -30182-5 0  9996
2 53964  53.2180 113.4862 0001422  98.0706 262.0448 15.08831124132580
STARLINK-4578           
1 53965U 22125B   25057.07047365  .00002813  00000+0  19480-3 0  9999
2 53965  53.2168 114.9510 0002164  74.2107 285.9124 15.08835364132538
STARLINK-4635           
1 53966U 22125C   25057.46327583 -.00000670  00000+0 -24034-4 0  9999
2 53966  53.2165 113.1436 0001470  92.3784 267.7376 15.08835319132598
STARLINK-4634           
1 53967U 22125D   25057.45959445  .00000734  00000+0  64187-4 0  9999
2 53967  53.2186 113.1232 0001630  91.8372 268.2807 15.08834215132590
STARLINK-4629           
1 53968U 22125E   25057.44853669  .00000484  00000+0  48536-4 0  9992
2 53968  53.2171 113.0556 0001477 108.6721 251.4431 15.08834696132597
STARLINK-4468           
1 53969U 22125F   25056.85974177 -.00000131  00000+0  98327-5 0  9999
2 53969  53.2165 115.7735 0001323  90.1612 269.9531 15.08835054132508
STARLINK-4567           
1 53970U 22125G   25057.12701006  .00000420  00000+0  44463-4 0  9992
2 53970  53.2150 109.6162 0001403  94.2883 265.8269 15.08833866132618
STARLINK-4639           
1 53971U 22125H   25057.18726188 -.00000785  00000+0 -31254-4 0  9997
2 53971  53.2153 114.2680 0001521 101.6256 258.4906 15.08829210132554
STARLINK-5156           
1 53973U 22125K   25057.44484912 -.00000518  00000+0 -14480-4 0  9990
2 53973  53.2170 113.0299 0001320  89.7161 270.3982 15.08833381132591
STARLINK-5159           
1 53974U 22125L   25057.41352547  .00008907  00000+0  57645-3 0  9993
2 53974  53.2154  92.8945 0001428  77.1274 282.9878 15.08873883132876
STARLINK-5137           
1 53975U 22125M   25056.42038643  .00000269  00000+0  34986-4 0  9999
2 53975  53.2170 112.3255 0001425  85.8854 274.2301 15.08838709132518
STARLINK-5134           
1 53976U 22125N   25057.39521188 -.00000347  00000+0 -37132-5 0  9994
2 53976  53.2151  93.4904 0001517  77.6034 282.5128 15.08826317132868
STARLINK-5094           
1 53977U 22125P   25057.39933722  .00001789  00000+0  13047-3 0  9992
2 53977  53.2157 108.4580 0001728 100.7989 259.3198 15.08836237132651
STARLINK-5148           
1 53978U 22125Q   25057.11595611  .00002287  00000+0  16178-3 0  9996
2 53978  53.2170 109.5453 0001569 100.3025 259.8144 15.08823668132614
STARLINK-5123           
1 53979U 22125R   25057.45453046  .00003774  00000+0  25526-3 0  9998
2 53979  53.2165 108.1005 0001575  89.3177 270.7996 15.08817748132662
STARLINK-5133           
1 53980U 22125S   25057.42872988 -.00000381  00000+0 -58775-5 0  9994
2 53980  53.2168 107.9429 0001330  91.4908 268.6236 15.08832998132666
STARLINK-5149           
1 53981U 22125T   25057.09706639  .00006415  00000+0  42079-3 0  9997
2 53981  53.2158  94.4838 0001424  71.2389 288.8757 15.08838263132824
STARLINK-5120           
1 53982U 22125U   25056.86067582 -.00001268  00000+0 -61617-4 0  9992
2 53982  53.2168 105.8014 0001365 102.9407 257.1737 15.08827600132567
STARLINK-5103           
1 53983U 22125V   25056.37579676  .00000594  00000+0  55438-4 0  9994
2 53983  53.2171  97.7826 0001373  82.7665 277.3484 15.08831606132713
STARLINK-5142           
1 53984U 22125W   25057.40163955  .00001654  00000+0  12196-3 0  9990
2 53984  53.2160 103.4969 0001253  95.4317 264.6818 15.08843129132721
STARLINK-5147           
1 53985U 22125X   25057.40901113 -.00000021  00000+0  16785-4 0  9994
2 53985  53.2158 103.5435 0001346  98.5246 261.5898 15.08834357132723
STARLINK-5119           
1 53986U 22125Y   25057.08970434  .00001445  00000+0  10888-3 0  9998
2 53986  53.2160  94.4231 0002155  84.4780 275.6458 15.08839417132826
STARLINK-5112           
1 53987U 22125Z   25056.91011041  .02612559  11997-4  73979-3 0  9998
2 53987  53.2027  76.6498 0001759  52.5849  19.8289 16.26956170132846
STARLINK-5113           
1 53988U 22125AA  25057.39796666  .00003159  00000+0  21666-3 0  9997
2 53988  53.2171 103.4766 0001387  88.5276 271.5875 15.08813483132727
STARLINK-5118           
1 53991U 22125AD  25057.11917740  .00001770  00000+0  12932-3 0  9992
2 53991  53.2156  94.5425 0001579  95.5983 264.5189 15.08824262132820
STARLINK-5108           
1 53992U 22125AE  25057.12194151 -.00000157  00000+0  82566-5 0  9998
2 53992  53.2147 104.5952 0001560  84.2900 275.8270 15.08837345132688
STARLINK-5121           
1 53993U 22125AF  25057.42964865  .00011723  00000+0  75308-3 0  9993
2 53993  53.2156  97.9670 0001377  93.2385 266.8765 15.08856373132809
STARLINK-5125           
1 53994U 22125AG  25057.37585160 -.00000194  00000+0  58871-5 0  9994
2 53994  53.2168 103.3356 0001552  83.8487 276.2682 15.08836850132721
STARLINK-5097           
1 53995U 22125AH  25057.11826134 -.00000192  00000+0  60280-5 0  9991
2 53995  53.2126 104.5727 0001657  84.8092 275.3089 15.08836653132687
STARLINK-5131           
1 53996U 22125AJ  25057.43840182 -.00001696  00000+0 -88470-4 0  9997
2 53996  53.2163 103.0202 0001515  90.9385 269.1781 15.08837861132735
STARLINK-5130           
1 53997U 22125AK  25057.47250048  .00001019  00000+0  82179-4 0  9995
2 53997  53.2198  93.2518 0001870  69.3997 290.7195 15.08823225132870
STARLINK-5128           
1 53998U 22125AL  25057.49726853 -.00006647  00000+0 -39969-3 0  9992
2 53998  53.2163 102.6766 0001518  92.8908 267.2258 15.08859844132746
STARLINK-5079           
1 53999U 22125AM  25057.44577523 -.00000532  00000+0 -15338-4 0  9998
2 53999  53.2176 103.0568 0001778  80.0934 280.0259 15.08837913132738
STARLINK-5088           
1 54000U 22125AN  25057.46877279  .00005043  00000+0  33440-3 0  9998
2 54000  53.2157  93.2297 0001182  95.4457 264.6670 15.08871722132875
STARLINK-5109           
1 54002U 22125AQ  25057.49083238  .00000266  00000+0  34814-4 0  9996
2 54002  53.2169  92.6779 0001694  97.9300 262.1885 15.08838557132869
STARLINK-5114           
1 54003U 22125AR  25057.10352063  .00000064  00000+0  22102-4 0  9993
2 54003  53.2168 104.4846 0001578  87.1100 273.0073 15.08833193132665
STARLINK-5129           
1 54004U 22125AS  25057.15871142 -.00001883  00000+0 -10027-3 0  9997
2 54004  53.2161 104.1151 0001568  90.2148 269.9024 15.08830823132679
STARLINK-5135           
1 54005U 22125AT  25057.42735901  .00002573  00000+0  17964-3 0  9992
2 54005  53.2150 102.9473 0001640  52.7230 307.3912 15.08848953132718
STARLINK-5096           
1 54006U 22125AU  25057.14765221 -.00001022  00000+0 -46175-4 0  9997
2 54006  53.2168 104.0554 0001052  84.2176 275.8936 15.08834107132673
STARLINK-5132           
1 54007U 22125AV  25057.08878275 -.00001254  00000+0 -60726-4 0  9990
2 54007  53.2169 104.3932 0001618  87.1149 273.0028 15.08835161132660
STARLINK-5145           
1 54008U 22125AW  25057.41722638 -.00000829  00000+0 -34026-4 0  9990
2 54008  53.2168  92.9149 0001454  90.0549 270.0610 15.08831490132853
STARLINK-5099           
1 54009U 22125AX  25057.15134032  .00000156  00000+0  27926-4 0  9999
2 54009  53.2170 104.0726 0001426  94.8923 265.2232 15.08829494132677
